CCSDS_OMM_VERS = 2.0
CREATION_DATE  = 
ORIGINATOR     = 

OBJECT_NAME    = STARLINK-35964
OBJECT_ID      = 2025-278F
CENTER_NAME    = EARTH
REF_FRAME      = TEME
TIME_SYSTEM    = UTC
MEAN_ELEMENT_THEORY = SGP/SGP4

EPOCH          = 2025-12-11T06:00:02.999808
MEAN_MOTION    = 16.04991979
ECCENTRICITY   = .0001955
INCLINATION    = 42.9959
RA_OF_ASC_NODE = 260.7295
ARG_OF_PERICENTER = 268.0928
MEAN_ANOMALY   = 112.6953

EPHEMERIS_TYPE = 0
CLASSIFICATION_TYPE = U
NORAD_CAT_ID   = 66796
ELEMENT_SET_NO = 999
REV_AT_EPOCH   = 255
BSTAR          = -.18240476E-2
MEAN_MOTION_DOT = -.1304302E-1
MEAN_MOTION_DDOT = .56324623E-3

CCSDS_OMM_VERS = 2.0
CREATION_DATE  = 
ORIGINATOR     = 

OBJECT_NAME    = STARLINK-36099
OBJECT_ID      = 2025-278G
CENTER_NAME    = EARTH
REF_FRAME      = TEME
TIME_SYSTEM    = UTC
MEAN_ELEMENT_THEORY = SGP/SGP4

EPOCH          = 2025-12-11T06:00:02.999808
MEAN_MOTION    = 15.90726445
ECCENTRICITY   = .00019132
INCLINATION    = 42.9981
RA_OF_ASC_NODE = 261.3245
ARG_OF_PERICENTER = 273.0431
MEAN_ANOMALY   = 234.2162

EPHEMERIS_TYPE = 0
CLASSIFICATION_TYPE = U
NORAD_CAT_ID   = 66797
ELEMENT_SET_NO = 999
REV_AT_EPOCH   = 277
BSTAR          = -.36293317E-2
MEAN_MOTION_DOT = -.1043901E-1
MEAN_MOTION_DDOT = 0

CCSDS_OMM_VERS = 2.0
CREATION_DATE  = 
ORIGINATOR     = 

OBJECT_NAME    = STARLINK-36041
OBJECT_ID      = 2025-278H
CENTER_NAME    = EARTH
REF_FRAME      = TEME
TIME_SYSTEM    = UTC
MEAN_ELEMENT_THEORY = SGP/SGP4

EPOCH          = 2025-12-11T06:00:02.999808
MEAN_MOTION    = 15.90763977
ECCENTRICITY   = .00019162
INCLINATION    = 42.9982
RA_OF_ASC_NODE = 261.3195
ARG_OF_PERICENTER = 273.1491
MEAN_ANOMALY   = 236.0411

EPHEMERIS_TYPE = 0
CLASSIFICATION_TYPE = U
NORAD_CAT_ID   = 66798
ELEMENT_SET_NO = 999
REV_AT_EPOCH   = 255
BSTAR          = -.36211534E-2
MEAN_MOTION_DOT = -.104362E-1
MEAN_MOTION_DDOT = 0

CCSDS_OMM_VERS = 2.0
CREATION_DATE  = 
ORIGINATOR     = 

OBJECT_NAME    = STARLINK-36044
OBJECT_ID      = 2025-278J
CENTER_NAME    = EARTH
REF_FRAME      = TEME
TIME_SYSTEM    = UTC
MEAN_ELEMENT_THEORY = SGP/SGP4

EPOCH          = 2025-12-11T06:00:02.999808
MEAN_MOTION    = 15.90809541
ECCENTRICITY   = .00018683
INCLINATION    = 42.9980
RA_OF_ASC_NODE = 261.3141
ARG_OF_PERICENTER = 274.1176
MEAN_ANOMALY   = 237.2613

EPHEMERIS_TYPE = 0
CLASSIFICATION_TYPE = U
NORAD_CAT_ID   = 66799
ELEMENT_SET_NO = 999
REV_AT_EPOCH   = 271
BSTAR          = -.36614197E-2
MEAN_MOTION_DOT = -.1056145E-1
MEAN_MOTION_DDOT = 0

CCSDS_OMM_VERS = 2.0
CREATION_DATE  = 
ORIGINATOR     = 

OBJECT_NAME    = STARLINK-35996
OBJECT_ID      = 2025-278K
CENTER_NAME    = EARTH
REF_FRAME      = TEME
TIME_SYSTEM    = UTC
MEAN_ELEMENT_THEORY = SGP/SGP4

EPOCH          = 2025-12-11T06:00:02.999808
MEAN_MOTION    = 15.90893355
ECCENTRICITY   = .00019328
INCLINATION    = 42.9980
RA_OF_ASC_NODE = 261.3028
ARG_OF_PERICENTER = 273.2044
MEAN_ANOMALY   = 242.5379

EPHEMERIS_TYPE = 0
CLASSIFICATION_TYPE = U
NORAD_CAT_ID   = 66800
ELEMENT_SET_NO = 999
REV_AT_EPOCH   = 250
BSTAR          = -.37072559E-2
MEAN_MOTION_DOT = -.1072078E-1
MEAN_MOTION_DDOT = 0

CCSDS_OMM_VERS = 2.0
CREATION_DATE  = 
ORIGINATOR     = 

OBJECT_NAME    = STARLINK-36080
OBJECT_ID      = 2025-278L
CENTER_NAME    = EARTH
REF_FRAME      = TEME
TIME_SYSTEM    = UTC
MEAN_ELEMENT_THEORY = SGP/SGP4

EPOCH          = 2025-12-11T06:00:02.999808
MEAN_MOTION    = 15.91114848
ECCENTRICITY   = .00018878
INCLINATION    = 42.9979
RA_OF_ASC_NODE = 261.2748
ARG_OF_PERICENTER = 274.3753
MEAN_ANOMALY   = 252.2721

EPHEMERIS_TYPE = 0
CLASSIFICATION_TYPE = U
NORAD_CAT_ID   = 66801
ELEMENT_SET_NO = 999
REV_AT_EPOCH   = 271
BSTAR          = -.39771776E-2
MEAN_MOTION_DOT = -.1304774E-1
MEAN_MOTION_DDOT = .48729173E-3

CCSDS_OMM_VERS = 2.0
CREATION_DATE  = 
ORIGINATOR     = 

OBJECT_NAME    = STARLINK-35604
OBJECT_ID      = 2025-278M
CENTER_NAME    = EARTH
REF_FRAME      = TEME
TIME_SYSTEM    = UTC
MEAN_ELEMENT_THEORY = SGP/SGP4

EPOCH          = 2025-12-11T06:00:02.999808
MEAN_MOTION    = 15.90844371
ECCENTRICITY   = .00018793
INCLINATION    = 42.9982
RA_OF_ASC_NODE = 261.3090
ARG_OF_PERICENTER = 274.1500
MEAN_ANOMALY   = 239.2084

EPHEMERIS_TYPE = 0
CLASSIFICATION_TYPE = U
NORAD_CAT_ID   = 66802
ELEMENT_SET_NO = 999
REV_AT_EPOCH   = 271
BSTAR          = -.36413156E-2
MEAN_MOTION_DOT = -.1052686E-1
MEAN_MOTION_DDOT = 0

CCSDS_OMM_VERS = 2.0
CREATION_DATE  = 
ORIGINATOR     = 

OBJECT_NAME    = STARLINK-35565
OBJECT_ID      = 2025-278N
CENTER_NAME    = EARTH
REF_FRAME      = TEME
TIME_SYSTEM    = UTC
MEAN_ELEMENT_THEORY = SGP/SGP4

EPOCH          = 2025-12-11T06:00:02.999808
MEAN_MOTION    = 15.90933644
ECCENTRICITY   = .00018874
INCLINATION    = 42.9981
RA_OF_ASC_NODE = 261.2979
ARG_OF_PERICENTER = 273.0794
MEAN_ANOMALY   = 244.6455

EPHEMERIS_TYPE = 0
CLASSIFICATION_TYPE = U
NORAD_CAT_ID   = 66803
ELEMENT_SET_NO = 999
REV_AT_EPOCH   = 280
BSTAR          = -.37225032E-2
MEAN_MOTION_DOT = -.107797E-1
MEAN_MOTION_DDOT = 0

CCSDS_OMM_VERS = 2.0
CREATION_DATE  = 
ORIGINATOR     = 

OBJECT_NAME    = STARLINK-36038
OBJECT_ID      = 2025-278P
CENTER_NAME    = EARTH
REF_FRAME      = TEME
TIME_SYSTEM    = UTC
MEAN_ELEMENT_THEORY = SGP/SGP4

EPOCH          = 2025-12-11T06:00:02.999808
MEAN_MOTION    = 15.90989008
ECCENTRICITY   = .00018591
INCLINATION    = 42.9983
RA_OF_ASC_NODE = 261.2919
ARG_OF_PERICENTER = 274.7983
MEAN_ANOMALY   = 245.4063

EPHEMERIS_TYPE = 0
CLASSIFICATION_TYPE = U
NORAD_CAT_ID   = 66804
ELEMENT_SET_NO = 999
REV_AT_EPOCH   = 271
BSTAR          = -.38353612E-2
MEAN_MOTION_DOT = -.1109667E-1
MEAN_MOTION_DDOT = 0

CCSDS_OMM_VERS = 2.0
CREATION_DATE  = 
ORIGINATOR     = 

OBJECT_NAME    = STARLINK-36049
OBJECT_ID      = 2025-278Q
CENTER_NAME    = EARTH
REF_FRAME      = TEME
TIME_SYSTEM    = UTC
MEAN_ELEMENT_THEORY = SGP/SGP4

EPOCH          = 2025-12-11T06:00:02.999808
MEAN_MOTION    = 15.91071053
ECCENTRICITY   = .0001846
INCLINATION    = 42.9981
RA_OF_ASC_NODE = 261.2808
ARG_OF_PERICENTER = 276.6450
MEAN_ANOMALY   = 247.8187

EPHEMERIS_TYPE = 0
CLASSIFICATION_TYPE = U
NORAD_CAT_ID   = 66805
ELEMENT_SET_NO = 999
REV_AT_EPOCH   = 271
BSTAR          = -.39133259E-2
MEAN_MOTION_DOT = -.1133803E-1
MEAN_MOTION_DDOT = 0

CCSDS_OMM_VERS = 2.0
CREATION_DATE  = 
ORIGINATOR     = 

OBJECT_NAME    = STARLINK-36069
OBJECT_ID      = 2025-278R
CENTER_NAME    = EARTH
REF_FRAME      = TEME
TIME_SYSTEM    = UTC
MEAN_ELEMENT_THEORY = SGP/SGP4

EPOCH          = 2025-12-11T06:00:02.999808
MEAN_MOTION    = 15.91026001
ECCENTRICITY   = .00018557
INCLINATION    = 42.9983
RA_OF_ASC_NODE = 261.2871
ARG_OF_PERICENTER = 276.3365
MEAN_ANOMALY   = 245.7247

EPHEMERIS_TYPE = 0
CLASSIFICATION_TYPE = U
NORAD_CAT_ID   = 66806
ELEMENT_SET_NO = 999
REV_AT_EPOCH   = 250
BSTAR          = -.38466509E-2
MEAN_MOTION_DOT = -.1114447E-1
MEAN_MOTION_DDOT = 0

CCSDS_OMM_VERS = 2.0
CREATION_DATE  = 
ORIGINATOR     = 

OBJECT_NAME    = STARLINK-36000
OBJECT_ID      = 2025-278S
CENTER_NAME    = EARTH
REF_FRAME      = TEME
TIME_SYSTEM    = UTC
MEAN_ELEMENT_THEORY = SGP/SGP4

EPOCH          = 2025-12-11T06:00:02.999808
MEAN_MOTION    = 15.91159204
ECCENTRICITY   = .00018936
INCLINATION    = 42.9982
RA_OF_ASC_NODE = 261.2700
ARG_OF_PERICENTER = 273.8355
MEAN_ANOMALY   = 254.9972

EPHEMERIS_TYPE = 0
CLASSIFICATION_TYPE = U
NORAD_CAT_ID   = 66807
ELEMENT_SET_NO = 999
REV_AT_EPOCH   = 277
BSTAR          = -.40519621E-2
MEAN_MOTION_DOT = -.1332051E-1
MEAN_MOTION_DDOT = .50631911E-3

