STARLINK-35964          
1 66796U 25278F   25345.25003472 -.01304302  56325-3 -18240-2 0  9996
2 66796  42.9959 260.7295 0001955 268.0928 112.6953 16.04991979  2554
STARLINK-36099          
1 66797U 25278G   25345.25003472 -.01043901  00000+0 -36293-2 0  9995
2 66797  42.9981 261.3245 0001913 273.0431 234.2162 15.90726445  2776
STARLINK-36041          
1 66798U 25278H   25345.25003472 -.01043620  00000+0 -36212-2 0  9995
2 66798  42.9982 261.3195 0001916 273.1491 236.0411 15.90763977  2556
STARLINK-36044          
1 66799U 25278J   25345.25003472 -.01056145  00000+0 -36614-2 0  9998
2 66799  42.9980 261.3141 0001868 274.1176 237.2613 15.90809541  2716
STARLINK-35996          
1 66800U 25278K   25345.25003472 -.01072078  00000+0 -37073-2 0  9994
2 66800  42.9980 261.3028 0001932 273.2044 242.5379 15.90893355  2500
STARLINK-36080          
1 66801U 25278L   25345.25003472 -.01304774  48729-3 -39772-2 0  9998
2 66801  42.9979 261.2748 0001887 274.3753 252.2721 15.91114848  2711
STARLINK-35604          
1 66802U 25278M   25345.25003472 -.01052686  00000+0 -36413-2 0  9996
2 66802  42.9982 261.3090 0001879 274.1500 239.2084 15.90844371  2713
STARLINK-35565          
1 66803U 25278N   25345.25003472 -.01077970  00000+0 -37225-2 0  9992
2 66803  42.9981 261.2979 0001887 273.0794 244.6455 15.90933644  2804
STARLINK-36038          
1 66804U 25278P   25345.25003472 -.01109667  00000+0 -38354-2 0  9996
2 66804  42.9983 261.2919 0001859 274.7983 245.4063 15.90989008  2717
STARLINK-36049          
1 66805U 25278Q   25345.25003472 -.01133803  00000+0 -39133-2 0  9992
2 66805  42.9981 261.2808 0001846 276.6450 247.8187 15.91071053  2715
STARLINK-36069          
1 66806U 25278R   25345.25003472 -.01114447  00000+0 -38467-2 0  9995
2 66806  42.9983 261.2871 0001855 276.3365 245.7247 15.91026001  2504
STARLINK-36000          
1 66807U 25278S   25345.25003472 -.01332051  50632-3 -40520-2 0  9992
2 66807  42.9982 261.2700 0001893 273.8355 254.9972 15.91159204  2776
